[{"OBJECT_NAME":"STARLINK-34551","OBJECT_ID":"2025-139U","EPOCH":"2026-03-09T12:12:25.064352","MEAN_MOTION":15.30194616,"ECCENTRICITY":0.00013715,"INCLINATION":53.1592,"RA_OF_ASC_NODE":117.4255,"ARG_OF_PERICENTER":82.1664,"MEAN_ANOMALY":277.9492,"EPHEMERIS_TYPE":0,"CLASSIFICATION_TYPE":"U","NORAD_CAT_ID":64682,"ELEMENT_SET_NO":999,"REV_AT_EPOCH":4040,"BSTAR":0.00090664113,"MEAN_MOTION_DOT":0.00026585,"MEAN_MOTION_DDOT":0},{"OBJECT_NAME":"COSMOS 1869","OBJECT_ID":"1987-062A","EPOCH":"2026-03-09T20:30:29.271744","MEAN_MOTION":15.35392408,"ECCENTRICITY":0.00185772,"INCLINATION":82.5127,"RA_OF_ASC_NODE":201.6716,"ARG_OF_PERICENTER":61.4986,"MEAN_ANOMALY":298.8125,"EPHEMERIS_TYPE":0,"CLASSIFICATION_TYPE":"U","NORAD_CAT_ID":18214,"ELEMENT_SET_NO":999,"REV_AT_EPOCH":8931,"BSTAR":0.00042037944,"MEAN_MOTION_DOT":0.00014573,"MEAN_MOTION_DDOT":0}]
